H1 CPF 01  gfz 2022 04 30 00  6201 terrasarx 
H2 0702601  6201 31698    2022 04 30 00 59 42 2022 05 05 00 00 42   120 1 1  0 0 0
H9
10 0 59703  55422.000000  0    2325270.768    824902.811   6421105.341
10 0 59703  55542.000000  0    1669879.345    227728.191   6668598.164
10 0 59703  55662.000000  0     974971.961   -361605.099   6798913.349
10 0 59703  55782.000000  0     252907.730   -932231.084   6809776.940
10 0 59703  55902.000000  0    -483299.311  -1473833.046   6701000.304
10 0 59703  56022.000000  0   -1220214.555  -1976829.804   6474482.566
10 0 59703  56142.000000  0   -1944226.697  -2432545.037   6134177.913
10 0 59703  56262.000000  0   -2641796.635  -2833356.729   5686031.642
10 0 59703  56382.000000  0   -3299711.951  -3172827.798   5137885.093
10 0 59703  56502.000000  0   -3905342.396  -3445813.290   4499343.857
10 0 59703  56622.000000  0   -4446886.693  -3648540.811   3781612.979
10 0 59703  56742.000000  0   -4913607.511  -3778663.677   2997303.487
10 0 59703  56862.000000  0   -5296050.419  -3835285.966   2160212.559
10 0 59703  56982.000000  0   -5586241.977  -3818958.685   1285078.276
10 0 59703  57102.000000  0   -5777859.800  -3731645.063    387314.225
10 0 59703  57222.000000  0   -5866371.161  -3576656.545   -517269.417
10 0 59703  57342.000000  0   -5849136.444  -3358561.420  -1412753.511
10 0 59703  57462.000000  0   -5725473.242  -3083067.096  -2283400.270
10 0 59703  57582.000000  0   -5496679.706  -2756879.952  -3113936.635
10 0 59703  57702.000000  0   -5166018.939  -2387547.675  -3889826.217
10 0 59703  57822.000000  0   -4738664.606  -1983287.432  -4597524.126
10 0 59703  57942.000000  0   -4221610.293  -1552805.067  -5224710.440
10 0 59703  58062.000000  0   -3623544.736  -1105108.974  -5760498.594
10 0 59703  58182.000000  0   -2954696.585   -649323.023  -6195614.614
10 0 59703  58302.000000  0   -2226653.199   -194503.093  -6522546.266
10 0 59703  58422.000000  0   -1452156.280    250539.109  -6735661.204
10 0 59703  58542.000000  0    -644879.382    677401.632  -6831292.764
10 0 59703  58662.000000  0     180808.866   1078246.621  -6807796.032
10 0 59703  58782.000000  0    1010093.500   1445939.894  -6665572.850
10 0 59703  58902.000000  0    1827972.866   1774174.861  -6407068.369
10 0 59703  59022.000000  0    2619524.852   2057579.817  -6036733.398
10 0 59703  59142.000000  0    3370175.325   2291805.427  -5560955.235
10 0 59703  59262.000000  0    4065963.494   2473591.636  -4987957.622
10 0 59703  59382.000000  0    4693803.259   2600813.834  -4327670.914
10 0 59703  59502.000000  0    5241734.627   2672506.423  -3591569.972
10 0 59703  59622.000000  0    5699158.121   2688862.913  -2792482.968
10 0 59703  59742.000000  0    6057049.714   2651212.947  -1944374.602
10 0 59703  59862.000000  0    6308149.460   2561975.288  -1062102.584
10 0 59703  59982.000000  0    6447117.322   2424587.535   -161155.377
10 0 59703  60102.000000  0    6470653.229   2243414.032    742626.135
10 0 59703  60222.000000  0    6377574.980   2023633.399   1633333.957
10 0 59703  60342.000000  0    6168857.276   1771111.147   2495280.839
10 0 59703  60462.000000  0    5847625.457   1492257.141   3313286.361
10 0 59703  60582.000000  0    5419105.584   1193873.390   4072951.575
10 0 59703  60702.000000  0    4890531.413    882995.786   4760917.242
10 0 59703  60822.000000  0    4271013.824    566734.765   5365099.369
10 0 59703  60942.000000  0    3571374.323    252117.140   5874901.191
10 0 59703  61062.000000  0    2803945.643    -54066.185   6281394.467
10 0 59703  61182.000000  0    1982347.986   -345402.341   6577468.912
10 0 59703  61302.000000  0    1121243.563   -615987.573   6757951.448
10 0 59703  61422.000000  0     236071.639   -860545.138   6819692.145
10 0 59703  61542.000000  0    -657229.384  -1074526.867   6761614.557
10 0 59703  61662.000000  0   -1542508.125  -1254197.631   6584732.533
10 0 59703  61782.000000  0   -2403690.754  -1396700.455   6292132.608
10 0 59703  61902.000000  0   -3225070.733  -1500101.149   5888923.998
10 0 59703  62022.000000  0   -3991597.311  -1563413.409   5382157.446
10 0 59703  62142.000000  0   -4689156.675  -1586604.248   4780707.989
10 0 59703  62262.000000  0   -5304838.800  -1570578.011   4095124.478
10 0 59703  62382.000000  0   -5827184.189  -1517139.064   3337447.408
10 0 59703  62502.000000  0   -6246405.243  -1428934.150   2520999.590
10 0 59703  62622.000000  0   -6554580.018  -1309376.607   1660152.529
10 0 59703  62742.000000  0   -6745812.130  -1162553.240    770068.212
10 0 59703  62862.000000  0   -6816348.903   -993115.487   -133575.700
10 0 59703  62982.000000  0   -6764656.961   -806158.199  -1034870.755
10 0 59703  63102.000000  0   -6591452.748   -607089.228  -1917966.970
10 0 59703  63222.000000  0   -6299687.587   -401493.305  -2767358.536
10 0 59703  63342.000000  0   -5894489.999   -194994.577  -3568162.109
10 0 59703  63462.000000  0   -5383063.418      6880.802  -4306381.309
10 0 59703  63582.000000  0   -4774544.387    198837.361  -4969149.593
10 0 59703  63702.000000  0   -4079826.895    375935.281  -5544949.210
10 0 59703  63822.000000  0   -3311356.068    533704.202  -6023803.115
10 0 59703  63942.000000  0   -2482896.804    668243.625  -6397436.034
10 0 59703  64062.000000  0   -1609284.314    776308.818  -6659405.483
10 0 59703  64182.000000  0    -706158.320    855380.883  -6805202.566
10 0 59703  64302.000000  0     210312.890    903719.914  -6832319.667
10 0 59703  64422.000000  0    1123713.708    920399.956  -6740289.053
10 0 59703  64542.000000  0    2017668.724    905325.958  -6530692.753
10 0 59703  64662.000000  0    2876130.695    859232.668  -6207138.139
10 0 59703  64782.000000  0    3683664.204    783665.239  -5775201.758
10 0 59703  64902.000000  0    4425720.223    680941.101  -5242342.391
10 0 59703  65022.000000  0    5088899.652    554094.291  -4617784.115
10 0 59703  65142.000000  0    5661201.442    406803.280  -3912367.648
10 0 59703  65262.000000  0    6132248.307    243302.564  -3138371.310
10 0 59703  65382.000000  0    6493486.001     68280.404  -2309304.933
10 0 59703  65502.000000  0    6738352.464   -113235.778  -1439677.619
10 0 59703  65622.000000  0    6862409.154   -296003.441   -544742.399
10 0 59703  65742.000000  0    6863431.519   -474695.067    359775.044
10 0 59703  65862.000000  0    6741456.918   -644032.186   1257959.349
10 0 59703  65982.000000  0    6498786.742   -798919.237   2133993.953
10 0 59703  66102.000000  0    6139943.000   -934573.737   2972449.566
10 0 59703  66222.000000  0    5671578.090  -1046649.278   3758563.733
10 0 59703  66342.000000  0    5102344.645  -1131348.192   4478505.698
10 0 59703  66462.000000  0    4442726.093  -1185522.237   5119623.060
10 0 59703  66582.000000  0    3704833.186  -1206756.512   5670663.530
10 0 59703  66702.000000  0    2902172.459  -1193436.248   6121969.598
10 0 59703  66822.000000  0    2049391.266  -1144795.882   6465642.399
10 0 59703  66942.000000  0    1162005.841  -1060948.972   6695674.566
10 0 59703  67062.000000  0     256114.945   -942898.008   6808049.853
10 0 59703  67182.000000  0    -651893.393   -792523.918   6800807.634
10 0 59703  67302.000000  0   -1545637.191   -612556.326   6674073.953
10 0 59703  67422.000000  0   -2409034.489   -406524.171   6430059.287
10 0 59703  67542.000000  0   -3226591.437   -178687.649   6073023.112
10 0 59703  67662.000000  0   -3983681.683     66047.497   5609205.378
10 0 59703  67782.000000  0   -4666812.459    322231.922   5046723.774
10 0 59703  67902.000000  0   -5263871.587    583988.921   4395437.413
10 0 59703  68022.000000  0   -5764350.883    845143.221   3666778.402
10 0 59703  68142.000000  0   -6159539.870   1099359.675   2873553.770
10 0 59703  68262.000000  0   -6442687.265   1340288.853   2029720.900
10 0 59703  68382.000000  0   -6609125.266   1561715.597   1150139.231
10 0 59703  68502.000000  0   -6656353.881   1757707.648    250302.642
10 0 59703  68622.000000  0   -6584080.588   1922760.124   -653942.344
10 0 59703  68742.000000  0   -6394214.832   2051931.347  -1546684.616
10 0 59703  68862.000000  0   -6090818.995   2140967.564  -2412236.465
10 0 59703  68982.000000  0   -5680016.417   2186413.671  -3235417.073
10 0 59703  69102.000000  0   -5169857.728   2185706.017  -4001823.624
10 0 59703  69222.000000  0   -4570151.312   2137245.153  -4698083.327
10 0 59703  69342.000000  0   -3892263.180   2040447.850  -5312082.587
10 0 59703  69462.000000  0   -3148891.969   1895777.737  -5833169.473
10 0 59703  69582.000000  0   -2353825.215   1704754.300  -6252328.529
10 0 59703  69702.000000  0   -1521679.600   1469940.026  -6562326.424
10 0 59703  69822.000000  0    -667631.640   1194906.122  -6757824.238
10 0 59703  69942.000000  0     192854.914    884177.897  -6835459.101
10 0 59703  70062.000000  0    1044301.606    543161.668  -6793895.747
10 0 59703  70182.000000  0    1871487.807    178052.605  -6633849.227
10 0 59703  70302.000000  0    2659717.104   -204275.199  -6358072.963
10 0 59703  70422.000000  0    3395073.658   -596394.014  -5971316.997
10 0 59703  70542.000000  0    4064665.450   -990462.226  -5480253.436
10 0 59703  70662.000000  0    4656850.511  -1378376.081  -4893372.945
10 0 59703  70782.000000  0    5161444.826  -1751932.726  -4220849.766
10 0 59703  70902.000000  0    5569905.417  -2102999.954  -3474375.654
10 0 59703  71022.000000  0    5875485.388  -2423689.631  -2666964.789
10 0 59703  71142.000000  0    6073356.542  -2706531.309  -1812731.357
10 0 59703  71262.000000  0    6160695.538  -2944641.467   -926643.825
10 0 59703  71382.000000  0    6136731.930  -3131884.383    -24260.501
10 0 59703  71502.000000  0    6002755.427  -3263020.479    878549.117
10 0 59703  71622.000000  0    5762082.789  -3333838.339   1765891.378
10 0 59703  71742.000000  0    5419981.655  -3341265.783   2622138.637
10 0 59703  71862.000000  0    4983554.868  -3283457.612   3432212.248
99
